CELESTIS-02             
1 25160U 98007D   19119.57596145 -.00000089  00000-0  18143-4 0  9990
2 25160 107.9627 123.3767 0064539 270.8762 197.0327 14.21518886100381
CELESTIS-03             
1 26034U 99070C   19119.54483879  .00001170  00000-0  78489-4 0  9998
2 26034  98.2529  16.4579 0013944  40.2992 319.9265 15.09015259 48140
LACMA ENOCH             
1 43777U 18099V   19118.77763225  .00001448  00000-0  13875-3 0  9998
2 43777  97.7446 191.1744 0017196 136.4538 223.8044 14.94589063 21801
